1 08820U 76039A   03032.81787241 -.00000005  00000-0  10000-3 0  8976
2 08820 109.8311 135.2494 0044321 330.4225  29.3922  6.38664657368414
